{"type": "FeatureCollection", "features": [ {"type": "Feature", "properties": {"norad_id": 59600, "name": "GSAT0227 (GALILEO 30)", "group": "gnss", "lat": -46.25939123217791, "lon": -26.47466656695414, "alt_km": 23233.66528950909, "timestamp": "2025-12-05T05:43:15.353099+00:00", "meta": {"OBJECT_NAME": "GSAT0227 (GALILEO 30)", "OBJECT_ID": "2024-079C", "EPOCH": "2025-12-03T16:06:35.879040", "MEAN_MOTION": 1.70474617, "ECCENTRICITY": 0.00034037, "INCLINATION": 54.9912, "RA_OF_ASC_NODE": 106.5479, "ARG_OF_PERICENTER": 113.2328, "MEAN_ANOMALY": 246.7577, "EPHEMERIS_TYPE": 0, "CLASSIFICATION_TYPE": "U", "NORAD_CAT_ID": 59600, "ELEMENT_SET_NO": 999, "REV_AT_EPOCH": 1003, "BSTAR": 0, "MEAN_MOTION_DOT": 1.8e-07, "MEAN_MOTION_DDOT": 0}, "tle": {"line1": "1 59600U 24079C   25337.67124860  .00000018  00000+0  00000+0 0  9993", "line2": "2 59600  54.9912 106.5479 0003403 113.2328 246.7577  1.70474617 10033"}}, "geometry": {"type": "Point", "coordinates": [-26.47466656695414, -46.25939123217791]}}, {"type": "Feature", "properties": {"norad_id": 61182, "name": "GSAT0232 (GALILEO 32)", "group": "gnss", "lat": 52.959322727868816, "lon": -66.59385293128385, "alt_km": 23221.197475318055, "timestamp": "2025-12-05T05:43:15.353109+00:00", "meta": {"OBJECT_NAME": "GSAT0232 (GALILEO 32)", "OBJECT_ID": "2024-167A", "EPOCH": "2025-11-29T15:16:36.414048", "MEAN_MOTION": 1.70473184, "ECCENTRICITY": 0.00022439, "INCLINATION": 55.2459, "RA_OF_ASC_NODE": 226.7912, "ARG_OF_PERICENTER": 216.1557, "MEAN_ANOMALY": 22.2275, "EPHEMERIS_TYPE": 0, "CLASSIFICATION_TYPE": "U", "NORAD_CAT_ID": 61182, "ELEMENT_SET_NO": 999, "REV_AT_EPOCH": 747, "BSTAR": 0, "MEAN_MOTION_DOT": 2.7e-07, "MEAN_MOTION_DDOT": 0}, "tle": {"line1": "1 61182U 24167A   25333.63653257  .00000027  00000+0  00000+0 0  9998", "line2": "2 61182  55.2459 226.7912 0002243 216.1557  22.2275  1.70473184  7470"}}, "geometry": {"type": "Point", "coordinates": [-66.59385293128385, 52.959322727868816]}}, {"type": "Feature", "properties": {"norad_id": 61183, "name": "GSAT0226 (GALILEO 31)", "group": "gnss", "lat": -7.35514443338297, "lon": 51.78442345095417, "alt_km": 23221.97420594905, "timestamp": "2025-12-05T05:43:15.353121+00:00", "meta": {"OBJECT_NAME": "GSAT0226 (GALILEO 31)", "OBJECT_ID": "2024-167B", "EPOCH": "2025-11-26T08:32:06.516672", "MEAN_MOTION": 1.70473481, "ECCENTRICITY": 6.079e-05, "INCLINATION": 55.246, "RA_OF_ASC_NODE": 226.8867, "ARG_OF_PERICENTER": 154.246, "MEAN_ANOMALY": 343.2327, "EPHEMERIS_TYPE": 0, "CLASSIFICATION_TYPE": "U", "NORAD_CAT_ID": 61183, "ELEMENT_SET_NO": 999, "REV_AT_EPOCH": 739, "BSTAR": 0, "MEAN_MOTION_DOT": 3e-07, "MEAN_MOTION_DDOT": 0}, "tle": {"line1": "1 61183U 24167B   25330.35563098  .00000030  00000+0  00000+0 0  9992", "line2": "2 61183  55.2460 226.8867 0000607 154.2460 343.2327  1.70473481  7395"}}, "geometry": {"type": "Point", "coordinates": [51.78442345095417, -7.35514443338297]}}, {"type": "Feature", "properties": {"norad_id": 61186, "name": "BEIDOU-3 M25 (C47)", "group": "gnss", "lat": 51.76449367329031, "lon": 64.74014737337325, "alt_km": 21537.30652774508, "timestamp": "2025-12-05T05:43:15.353132+00:00", "meta": {"OBJECT_NAME": "BEIDOU-3 M25 (C47)", "OBJECT_ID": "2024-168B", "EPOCH": "2025-12-04T06:41:34.098432", "MEAN_MOTION": 1.86229712, "ECCENTRICITY": 0.0005502, "INCLINATION": 54.6499, "RA_OF_ASC_NODE": 309.0133, "ARG_OF_PERICENTER": 294.1783, "MEAN_ANOMALY": 248.0837, "EPHEMERIS_TYPE": 0, "CLASSIFICATION_TYPE": "U", "NORAD_CAT_ID": 61186, "ELEMENT_SET_NO": 999, "REV_AT_EPOCH": 815, "BSTAR": 0, "MEAN_MOTION_DOT": -6.9e-07, "MEAN_MOTION_DDOT": 0}, "tle": {"line1": "1 61186U 24168B   25338.27886688 -.00000069  00000+0  00000+0 0  9991", "line2": "2 61186  54.6499 309.0133 0005502 294.1783 248.0837  1.86229712  8150"}}, "geometry": {"type": "Point", "coordinates": [64.74014737337325, 51.76449367329031]}}, {"type": "Feature", "properties": {"norad_id": 61187, "name": "BEIDOU-3 M27 (C49)", "group": "gnss", "lat": -45.23311674828086, "lon": 174.61806388506986, "alt_km": 21533.2144201708, "timestamp": "2025-12-05T05:43:15.353145+00:00", "meta": {"OBJECT_NAME": "BEIDOU-3 M27 (C49)", "OBJECT_ID": "2024-168C", "EPOCH": "2025-12-04T01:54:08.310240", "MEAN_MOTION": 1.86229854, "ECCENTRICITY": 0.00022821, "INCLINATION": 54.6454, "RA_OF_ASC_NODE": 309.0039, "ARG_OF_PERICENTER": 329.4527, "MEAN_ANOMALY": 213.9234, "EPHEMERIS_TYPE": 0, "CLASSIFICATION_TYPE": "U", "NORAD_CAT_ID": 61187, "ELEMENT_SET_NO": 999, "REV_AT_EPOCH": 562, "BSTAR": 0, "MEAN_MOTION_DOT": -6.8e-07, "MEAN_MOTION_DDOT": 0}, "tle": {"line1": "1 61187U 24168C   25338.07926285 -.00000068  00000+0  00000+0 0  9997", "line2": "2 61187  54.6454 309.0039 0002282 329.4527 213.9234  1.86229854  5625"}}, "geometry": {"type": "Point", "coordinates": [174.61806388506986, -45.23311674828086]}}, {"type": "Feature", "properties": {"norad_id": 62339, "name": "GPS BIII-7  (PRN 01)", "group": "gnss", "lat": -47.35171850597766, "lon": -148.2427883404462, "alt_km": 20192.29938846746, "timestamp": "2025-12-05T05:43:15.353158+00:00", "meta": {"OBJECT_NAME": "GPS BIII-7  (PRN 01)", "OBJECT_ID": "2024-242A", "EPOCH": "2025-12-04T03:38:20.685120", "MEAN_MOTION": 2.00567235, "ECCENTRICITY": 0.0011725, "INCLINATION": 54.9261, "RA_OF_ASC_NODE": 342.0885, "ARG_OF_PERICENTER": 343.4986, "MEAN_ANOMALY": 195.9397, "EPHEMERIS_TYPE": 0, "CLASSIFICATION_TYPE": "U", "NORAD_CAT_ID": 62339, "ELEMENT_SET_NO": 999, "REV_AT_EPOCH": 734, "BSTAR": 0, "MEAN_MOTION_DOT": -7.2e-07, "MEAN_MOTION_DDOT": 0}, "tle": {"line1": "1 62339U 24242A   25338.15162830 -.00000072  00000+0  00000+0 0  9992", "line2": "2 62339  54.9261 342.0885 0011725 343.4986 195.9397  2.00567235  7342"}}, "geometry": {"type": "Point", "coordinates": [-148.2427883404462, -47.35171850597766]}}, {"type": "Feature", "properties": {"norad_id": 62850, "name": "NVS-02 (IRNSS-1K)", "group": "gnss", "lat": 12.196730824291452, "lon": 116.09031637344283, "alt_km": 12772.392784378855, "timestamp": "2025-12-05T05:43:15.353196+00:00", "meta": {"OBJECT_NAME": "NVS-02 (IRNSS-1K)", "OBJECT_ID": "2025-020A", "EPOCH": "2025-12-04T06:38:07.363104", "MEAN_MOTION": 2.1758608, "ECCENTRICITY": 0.734787, "INCLINATION": 21.0056, "RA_OF_ASC_NODE": 330.7198, "ARG_OF_PERICENTER": 20.7453, "MEAN_ANOMALY": 357.9063, "EPHEMERIS_TYPE": 0, "CLASSIFICATION_TYPE": "U", "NORAD_CAT_ID": 62850, "ELEMENT_SET_NO": 999, "REV_AT_EPOCH": 673, "BSTAR": 0.00056843, "MEAN_MOTION_DOT": 9.64e-06, "MEAN_MOTION_DDOT": 0}, "tle": {"line1": "1 62850U 25020A   25338.27647411  .00000964  00000+0  56843-3 0  9990", "line2": "2 62850  21.0056 330.7198 7347870  20.7453 357.9063  2.17586080  6731"}}, "geometry": {"type": "Point", "coordinates": [116.09031637344283, 12.196730824291452]}}, {"type": "Feature", "properties": {"norad_id": 63130, "name": "COSMOS 2584 (704K)", "group": "gnss", "lat": -61.32798953314626, "lon": 20.87103330295324, "alt_km": 19130.38510731778, "timestamp": "2025-12-05T05:43:15.353211+00:00", "meta": {"OBJECT_NAME": "COSMOS 2584 (704K)", "OBJECT_ID": "2025-042A", "EPOCH": "2025-11-26T10:06:10.904256", "MEAN_MOTION": 2.13103062, "ECCENTRICITY": 0.00075218, "INCLINATION": 64.9668, "RA_OF_ASC_NODE": 79.7019, "ARG_OF_PERICENTER": 212.3772, "MEAN_ANOMALY": 147.585, "EPHEMERIS_TYPE": 0, "CLASSIFICATION_TYPE": "U", "NORAD_CAT_ID": 63130, "ELEMENT_SET_NO": 999, "REV_AT_EPOCH": 572, "BSTAR": 0, "MEAN_MOTION_DOT": 1.8e-07, "MEAN_MOTION_DDOT": 0}, "tle": {"line1": "1 63130U 25042A   25330.42095954  .00000018  00000+0  00000+0 0  9994", "line2": "2 63130  64.9668  79.7019 0007521 212.3772 147.5850  2.13103062  5728"}}, "geometry": {"type": "Point", "coordinates": [20.87103330295324, -61.32798953314626]}}, {"type": "Feature", "properties": {"norad_id": 64202, "name": "GPS BIII-8  (PRN 21)", "group": "gnss", "lat": 52.0014386523692, "lon": 102.16010128803794, "alt_km": 20184.491646071412, "timestamp": "2025-12-05T05:43:15.353222+00:00", "meta": {"OBJECT_NAME": "GPS BIII-8  (PRN 21)", "OBJECT_ID": "2025-116A", "EPOCH": "2025-12-03T06:10:25.375296", "MEAN_MOTION": 2.00558491, "ECCENTRICITY": 0.0004994, "INCLINATION": 55.0986, "RA_OF_ASC_NODE": 39.0246, "ARG_OF_PERICENTER": 306.9577, "MEAN_ANOMALY": 136.4728, "EPHEMERIS_TYPE": 0, "CLASSIFICATION_TYPE": "U", "NORAD_CAT_ID": 64202, "ELEMENT_SET_NO": 999, "REV_AT_EPOCH": 394, "BSTAR": 0, "MEAN_MOTION_DOT": -6.8e-07, "MEAN_MOTION_DDOT": 0}, "tle": {"line1": "1 64202U 25116A   25337.25723814 -.00000068  00000+0  00000+0 0  9994", "line2": "2 64202  55.0986  39.0246 0004994 306.9577 136.4728  2.00558491  3947"}}, "geometry": {"type": "Point", "coordinates": [102.16010128803794, 52.0014386523692]}}, {"type": "Feature", "properties": {"norad_id": 65590, "name": "COSMOS 2596 (708K)", "group": "gnss", "lat": 38.19786042412395, "lon": -16.472360210234562, "alt_km": 19130.9190200049, "timestamp": "2025-12-05T05:43:15.353236+00:00", "meta": {"OBJECT_NAME": "COSMOS 2596 (708K)", "OBJECT_ID": "2025-206B", "EPOCH": "2025-12-01T01:16:47.699904", "MEAN_MOTION": 2.13100271, "ECCENTRICITY": 0.00140756, "INCLINATION": 64.7507, "RA_OF_ASC_NODE": 321.8815, "ARG_OF_PERICENTER": 304.7151, "MEAN_ANOMALY": 127.6712, "EPHEMERIS_TYPE": 0, "CLASSIFICATION_TYPE": "U", "NORAD_CAT_ID": 65590, "ELEMENT_SET_NO": 999, "REV_AT_EPOCH": 168, "BSTAR": 0, "MEAN_MOTION_DOT": -2.6e-07, "MEAN_MOTION_DDOT": 0}, "tle": {"line1": "1 65590U 25206B   25335.05332986 -.00000026  00000+0  00000+0 0  9991", "line2": "2 65590  64.7507 321.8815 0014075 304.7151 127.6712  2.13100271  1680"}}, "geometry": {"type": "Point", "coordinates": [-16.472360210234562, 38.19786042412395]}}]}